COSMOS 2242             
1 22626U 93024A   26078.86567624  .00001795  00000+0  15511-3 0  9990
2 22626  82.5152 256.9802 0014933 271.5176  88.4336 14.96589883781913
SL-16 R/B               
1 22803U 93059B   26078.85234671  .00000235  00000+0  13975-3 0  9997
2 22803  70.9931 349.6969 0017944 201.7457 158.2907 14.17233744680971
ARIANE 40 R/B           
1 22830U 93061H   26078.75414968  .00000165  00000+0  76394-4 0  9995
2 22830  98.4897 147.4423 0009640 251.7617 108.2518 14.32865927695546
COSMOS 2278             
1 23087U 94023A   26078.56973424 -.00000178  00000+0 -68172-4 0  9996
2 23087  71.0541 154.4291 0008718 356.2928   3.8128 14.14378674646200
SL-16 R/B               
1 23088U 94023B   26078.61177929  .00000015  00000+0  32542-4 0  9999
2 23088  70.9993  50.0477 0005508 275.9898  84.0596 14.15010138647495
SL-16 R/B               
1 23343U 94074B   26078.67828316  .00000377  00000+0  57166-4 0  9998
2 23343  97.7095 109.0911 0006570 175.9830 298.7047 14.79418972688726
SL-16 R/B               
1 23405U 94077B   26078.87219330  .00000303  00000+0  17926-3 0  9990
2 23405  70.9849 331.0687 0002501 200.4513 159.6510 14.15565948617676
ARIANE 40+ R/B          
1 23561U 95021B   26078.83577719  .00000234  00000+0  88593-4 0  9999
2 23561  98.4478 150.1801 0007935 110.0566  11.2763 14.39779314620701
SL-16 R/B               
1 23705U 95058B   26078.66766372  .00000039  00000+0  44121-4 0  9997
2 23705  71.0221 159.3081 0010316 107.4039 252.8213 14.15500650569262
SL-16 R/B               
1 24298U 96051B   26078.65603708  .00000093  00000+0  77117-4 0  9992
2 24298  70.7597 154.1454 0014237 132.4060 227.8267 14.12418272523050
ORBVIEW 2 (SEASTAR)     
1 24883U 97037A   26078.31555738  .00000223  00000+0  93667-4 0  9992
2 24883  98.8583 242.8831 0002806  51.8053 308.3384 14.35501518509853
SL-16 R/B               
1 25400U 98043G   26078.83510877  .00000042  00000+0  36402-4 0  9991
2 25400  98.8272  32.2714 0009681 351.5109   8.5906 14.26051996440432
