CCSDS_OMM_VERS = 2.0
CREATION_DATE  = 
ORIGINATOR     = 

OBJECT_NAME    = COSMOS 2242
OBJECT_ID      = 1993-024A
CENTER_NAME    = EARTH
REF_FRAME      = TEME
TIME_SYSTEM    = UTC
MEAN_ELEMENT_THEORY = SGP/SGP4

EPOCH          = 2026-03-19T20:46:34.427136
MEAN_MOTION    = 14.96589883
ECCENTRICITY   = .0014933
INCLINATION    = 82.5152
RA_OF_ASC_NODE = 256.9802
ARG_OF_PERICENTER = 271.5176
MEAN_ANOMALY   = 88.4336

EPHEMERIS_TYPE = 0
CLASSIFICATION_TYPE = U
NORAD_CAT_ID   = 22626
ELEMENT_SET_NO = 999
REV_AT_EPOCH   = 78191
BSTAR          = .15511E-3
MEAN_MOTION_DOT = .1795E-4
MEAN_MOTION_DDOT = 0

CCSDS_OMM_VERS = 2.0
CREATION_DATE  = 
ORIGINATOR     = 

OBJECT_NAME    = SL-16 R/B
OBJECT_ID      = 1993-059B
CENTER_NAME    = EARTH
REF_FRAME      = TEME
TIME_SYSTEM    = UTC
MEAN_ELEMENT_THEORY = SGP/SGP4

EPOCH          = 2026-03-19T20:27:22.755744
MEAN_MOTION    = 14.17233744
ECCENTRICITY   = .0017944
INCLINATION    = 70.9931
RA_OF_ASC_NODE = 349.6969
ARG_OF_PERICENTER = 201.7457
MEAN_ANOMALY   = 158.2907

EPHEMERIS_TYPE = 0
CLASSIFICATION_TYPE = U
NORAD_CAT_ID   = 22803
ELEMENT_SET_NO = 999
REV_AT_EPOCH   = 68097
BSTAR          = .13975E-3
MEAN_MOTION_DOT = .235E-5
MEAN_MOTION_DDOT = 0

CCSDS_OMM_VERS = 2.0
CREATION_DATE  = 
ORIGINATOR     = 

OBJECT_NAME    = ARIANE 40 R/B
OBJECT_ID      = 1993-061H
CENTER_NAME    = EARTH
REF_FRAME      = TEME
TIME_SYSTEM    = UTC
MEAN_ELEMENT_THEORY = SGP/SGP4

EPOCH          = 2026-03-19T18:05:58.532352
MEAN_MOTION    = 14.32865927
ECCENTRICITY   = .000964
INCLINATION    = 98.4897
RA_OF_ASC_NODE = 147.4423
ARG_OF_PERICENTER = 251.7617
MEAN_ANOMALY   = 108.2518

EPHEMERIS_TYPE = 0
CLASSIFICATION_TYPE = U
NORAD_CAT_ID   = 22830
ELEMENT_SET_NO = 999
REV_AT_EPOCH   = 69554
BSTAR          = .76394E-4
MEAN_MOTION_DOT = .165E-5
MEAN_MOTION_DDOT = 0

CCSDS_OMM_VERS = 2.0
CREATION_DATE  = 
ORIGINATOR     = 

OBJECT_NAME    = COSMOS 2278
OBJECT_ID      = 1994-023A
CENTER_NAME    = EARTH
REF_FRAME      = TEME
TIME_SYSTEM    = UTC
MEAN_ELEMENT_THEORY = SGP/SGP4

EPOCH          = 2026-03-19T13:40:25.038336
MEAN_MOTION    = 14.14378674
ECCENTRICITY   = .0008718
INCLINATION    = 71.0541
RA_OF_ASC_NODE = 154.4291
ARG_OF_PERICENTER = 356.2928
MEAN_ANOMALY   = 3.8128

EPHEMERIS_TYPE = 0
CLASSIFICATION_TYPE = U
NORAD_CAT_ID   = 23087
ELEMENT_SET_NO = 999
REV_AT_EPOCH   = 64620
BSTAR          = -.68172E-4
MEAN_MOTION_DOT = -.178E-5
MEAN_MOTION_DDOT = 0

CCSDS_OMM_VERS = 2.0
CREATION_DATE  = 
ORIGINATOR     = 

OBJECT_NAME    = SL-16 R/B
OBJECT_ID      = 1994-023B
CENTER_NAME    = EARTH
REF_FRAME      = TEME
TIME_SYSTEM    = UTC
MEAN_ELEMENT_THEORY = SGP/SGP4

EPOCH          = 2026-03-19T14:40:57.730656
MEAN_MOTION    = 14.15010138
ECCENTRICITY   = .0005508
INCLINATION    = 70.9993
RA_OF_ASC_NODE = 50.0477
ARG_OF_PERICENTER = 275.9898
MEAN_ANOMALY   = 84.0596

EPHEMERIS_TYPE = 0
CLASSIFICATION_TYPE = U
NORAD_CAT_ID   = 23088
ELEMENT_SET_NO = 999
REV_AT_EPOCH   = 64749
BSTAR          = .32542E-4
MEAN_MOTION_DOT = .15E-6
MEAN_MOTION_DDOT = 0

CCSDS_OMM_VERS = 2.0
CREATION_DATE  = 
ORIGINATOR     = 

OBJECT_NAME    = SL-16 R/B
OBJECT_ID      = 1994-074B
CENTER_NAME    = EARTH
REF_FRAME      = TEME
TIME_SYSTEM    = UTC
MEAN_ELEMENT_THEORY = SGP/SGP4

EPOCH          = 2026-03-19T16:16:43.665024
MEAN_MOTION    = 14.79418972
ECCENTRICITY   = .000657
INCLINATION    = 97.7095
RA_OF_ASC_NODE = 109.0911
ARG_OF_PERICENTER = 175.9830
MEAN_ANOMALY   = 298.7047

EPHEMERIS_TYPE = 0
CLASSIFICATION_TYPE = U
NORAD_CAT_ID   = 23343
ELEMENT_SET_NO = 999
REV_AT_EPOCH   = 68872
BSTAR          = .57166E-4
MEAN_MOTION_DOT = .377E-5
MEAN_MOTION_DDOT = 0

CCSDS_OMM_VERS = 2.0
CREATION_DATE  = 
ORIGINATOR     = 

OBJECT_NAME    = SL-16 R/B
OBJECT_ID      = 1994-077B
CENTER_NAME    = EARTH
REF_FRAME      = TEME
TIME_SYSTEM    = UTC
MEAN_ELEMENT_THEORY = SGP/SGP4

EPOCH          = 2026-03-19T20:55:57.501120
MEAN_MOTION    = 14.15565948
ECCENTRICITY   = .0002501
INCLINATION    = 70.9849
RA_OF_ASC_NODE = 331.0687
ARG_OF_PERICENTER = 200.4513
MEAN_ANOMALY   = 159.6510

EPHEMERIS_TYPE = 0
CLASSIFICATION_TYPE = U
NORAD_CAT_ID   = 23405
ELEMENT_SET_NO = 999
REV_AT_EPOCH   = 61767
BSTAR          = .17926E-3
MEAN_MOTION_DOT = .303E-5
MEAN_MOTION_DDOT = 0

CCSDS_OMM_VERS = 2.0
CREATION_DATE  = 
ORIGINATOR     = 

OBJECT_NAME    = ARIANE 40+ R/B
OBJECT_ID      = 1995-021B
CENTER_NAME    = EARTH
REF_FRAME      = TEME
TIME_SYSTEM    = UTC
MEAN_ELEMENT_THEORY = SGP/SGP4

EPOCH          = 2026-03-19T20:03:31.149216
MEAN_MOTION    = 14.39779314
ECCENTRICITY   = .0007935
INCLINATION    = 98.4478
RA_OF_ASC_NODE = 150.1801
ARG_OF_PERICENTER = 110.0566
MEAN_ANOMALY   = 11.2763

EPHEMERIS_TYPE = 0
CLASSIFICATION_TYPE = U
NORAD_CAT_ID   = 23561
ELEMENT_SET_NO = 999
REV_AT_EPOCH   = 62070
BSTAR          = .88593E-4
MEAN_MOTION_DOT = .234E-5
MEAN_MOTION_DDOT = 0

CCSDS_OMM_VERS = 2.0
CREATION_DATE  = 
ORIGINATOR     = 

OBJECT_NAME    = SL-16 R/B
OBJECT_ID      = 1995-058B
CENTER_NAME    = EARTH
REF_FRAME      = TEME
TIME_SYSTEM    = UTC
MEAN_ELEMENT_THEORY = SGP/SGP4

EPOCH          = 2026-03-19T16:01:26.145408
MEAN_MOTION    = 14.15500650
ECCENTRICITY   = .0010316
INCLINATION    = 71.0221
RA_OF_ASC_NODE = 159.3081
ARG_OF_PERICENTER = 107.4039
MEAN_ANOMALY   = 252.8213

EPHEMERIS_TYPE = 0
CLASSIFICATION_TYPE = U
NORAD_CAT_ID   = 23705
ELEMENT_SET_NO = 999
REV_AT_EPOCH   = 56926
BSTAR          = .44121E-4
MEAN_MOTION_DOT = .39E-6
MEAN_MOTION_DDOT = 0

CCSDS_OMM_VERS = 2.0
CREATION_DATE  = 
ORIGINATOR     = 

OBJECT_NAME    = SL-16 R/B
OBJECT_ID      = 1996-051B
CENTER_NAME    = EARTH
REF_FRAME      = TEME
TIME_SYSTEM    = UTC
MEAN_ELEMENT_THEORY = SGP/SGP4

EPOCH          = 2026-03-19T15:44:41.603712
MEAN_MOTION    = 14.12418272
ECCENTRICITY   = .0014237
INCLINATION    = 70.7597
RA_OF_ASC_NODE = 154.1454
ARG_OF_PERICENTER = 132.4060
MEAN_ANOMALY   = 227.8267

EPHEMERIS_TYPE = 0
CLASSIFICATION_TYPE = U
NORAD_CAT_ID   = 24298
ELEMENT_SET_NO = 999
REV_AT_EPOCH   = 52305
BSTAR          = .77117E-4
MEAN_MOTION_DOT = .93E-6
MEAN_MOTION_DDOT = 0

CCSDS_OMM_VERS = 2.0
CREATION_DATE  = 
ORIGINATOR     = 

OBJECT_NAME    = ORBVIEW 2 (SEASTAR)
OBJECT_ID      = 1997-037A
CENTER_NAME    = EARTH
REF_FRAME      = TEME
TIME_SYSTEM    = UTC
MEAN_ELEMENT_THEORY = SGP/SGP4

EPOCH          = 2026-03-19T07:34:24.157632
MEAN_MOTION    = 14.35501518
ECCENTRICITY   = .00028063
INCLINATION    = 98.8583
RA_OF_ASC_NODE = 242.8831
ARG_OF_PERICENTER = 51.8053
MEAN_ANOMALY   = 308.3384

EPHEMERIS_TYPE = 0
CLASSIFICATION_TYPE = U
NORAD_CAT_ID   = 24883
ELEMENT_SET_NO = 999
REV_AT_EPOCH   = 50985
BSTAR          = .9366706E-4
MEAN_MOTION_DOT = .223E-5
MEAN_MOTION_DDOT = 0

CCSDS_OMM_VERS = 2.0
CREATION_DATE  = 
ORIGINATOR     = 

OBJECT_NAME    = SL-16 R/B
OBJECT_ID      = 1998-043G
CENTER_NAME    = EARTH
REF_FRAME      = TEME
TIME_SYSTEM    = UTC
MEAN_ELEMENT_THEORY = SGP/SGP4

EPOCH          = 2026-03-19T20:02:33.397728
MEAN_MOTION    = 14.26051996
ECCENTRICITY   = .0009681
INCLINATION    = 98.8272
RA_OF_ASC_NODE = 32.2714
ARG_OF_PERICENTER = 351.5109
MEAN_ANOMALY   = 8.5906

EPHEMERIS_TYPE = 0
CLASSIFICATION_TYPE = U
NORAD_CAT_ID   = 25400
ELEMENT_SET_NO = 999
REV_AT_EPOCH   = 44043
BSTAR          = .36402E-4
MEAN_MOTION_DOT = .42E-6
MEAN_MOTION_DDOT = 0

